[
  {
    "ORDINAL": "1",
    "COMMENT": "GENERATED VIA SPACETRACK.ORG API",
    "ORIGINATOR": "18 SPCS",
    "NORAD_CAT_ID": "686",
    "OBJECT_NAME": "SL-5 DEB",
    "OBJECT_TYPE": "DEBRIS",
    "CLASSIFICATION_TYPE": "U",
    "INTLDES": "63043D",
    "EPOCH": "1966-12-14 01:12:31",
    "EPOCH_MICROSECONDS": "506624",
    "MEAN_MOTION": "15.90561644",
    "ECCENTRICITY": "0.0068846",
    "INCLINATION": "59.7907",
    "RA_OF_ASC_NODE": "174.827",
    "ARG_OF_PERICENTER": "83.755",
    "MEAN_ANOMALY": "277.0351",
    "EPHEMERIS_TYPE": "0",
    "ELEMENT_SET_NO": "999",
    "REV_AT_EPOCH": "16598",
    "BSTAR": "0",
    "MEAN_MOTION_DOT": "0.02244252",
    "MEAN_MOTION_DDOT": "0.010514",
    "FILE": "33914",
    "TLE_LINE0": "0 SL-5 DEB",
    "TLE_LINE1": "1 00686U 63043  D 66348.05036466  .02244252 +10514-1 +00000-0 0  9996",
    "TLE_LINE2": "2 00686 059.7907 174.8270 0068846 083.7550 277.0351 15.90561644165983",
    "OBJECT_ID": "1963-043D",
    "OBJECT_NUMBER": "686",
    "SEMIMAJOR_AXIS": "6678.851",
    "PERIOD": "90.534",
    "APOGEE": "346.698",
    "PERIGEE": "254.735",
    "DECAYED": "1"
  },
  {
    "ORDINAL": "1",
    "COMMENT": "GENERATED VIA SPACETRACK.ORG API",
    "ORIGINATOR": "18 SPCS",
    "NORAD_CAT_ID": "687",
    "OBJECT_NAME": "COSMOS 21",
    "OBJECT_TYPE": "PAYLOAD",
    "CLASSIFICATION_TYPE": "U",
    "INTLDES": "63044A",
    "EPOCH": "1963-11-12 01:28:10",
    "EPOCH_MICROSECONDS": "468992",
    "MEAN_MOTION": "16.2710227",
    "ECCENTRICITY": "0.0029511",
    "INCLINATION": "64.7829",
    "RA_OF_ASC_NODE": "178.2347",
    "ARG_OF_PERICENTER": "95.5782",
    "MEAN_ANOMALY": "264.7585",
    "EPHEMERIS_TYPE": "0",
    "ELEMENT_SET_NO": "999",
    "REV_AT_EPOCH": "13",
    "BSTAR": "0",
    "MEAN_MOTION_DOT": "0.0274658",
    "MEAN_MOTION_DDOT": "0",
    "FILE": "33909",
    "TLE_LINE0": "0 COSMOS 21",
    "TLE_LINE1": "1 00687U 63044  A 63316.06123228  .02746580 +00000-0 +00000-0 0  9993",
    "TLE_LINE2": "2 00687 064.7829 178.2347 0029511 095.5782 264.7585 16.27102270000134",
    "OBJECT_ID": "1963-044A",
    "OBJECT_NUMBER": "687",
    "SEMIMAJOR_AXIS": "6578.480",
    "PERIOD": "88.501",
    "APOGEE": "219.759",
    "PERIGEE": "180.931",
    "DECAYED": "1"
  },
  {
    "ORDINAL": "1",
    "COMMENT": "GENERATED VIA SPACETRACK.ORG API",
    "ORIGINATOR": "18 SPCS",
    "NORAD_CAT_ID": "688",
    "OBJECT_NAME": "SL-6 R/B",
    "OBJECT_TYPE": "ROCKET BODY",
    "CLASSIFICATION_TYPE": "U",
    "INTLDES": "63044B",
    "EPOCH": "1963-11-11 16:35:05",
    "EPOCH_MICROSECONDS": "117280",
    "MEAN_MOTION": "16.29621717",
    "ECCENTRICITY": "0.0017115",
    "INCLINATION": "65.0766",
    "RA_OF_ASC_NODE": "179.9815",
    "ARG_OF_PERICENTER": "312.1646",
    "MEAN_ANOMALY": "47.6913",
    "EPHEMERIS_TYPE": "0",
    "ELEMENT_SET_NO": "999",
    "REV_AT_EPOCH": "7",
    "BSTAR": "0",
    "MEAN_MOTION_DOT": "0.00208208",
    "MEAN_MOTION_DDOT": "0",
    "FILE": "33909",
    "TLE_LINE0": "0 SL-6 R/B",
    "TLE_LINE1": "1 00688U 63044  B 63315.69103145  .00208208 +00000-0 +00000-0 0  9996",
    "TLE_LINE2": "2 00688 065.0766 179.9815 0017115 312.1646 047.6913 16.29621717000071",
    "OBJECT_ID": "1963-044B",
    "OBJECT_NUMBER": "688",
    "SEMIMAJOR_AXIS": "6571.698",
    "PERIOD": "88.364",
    "APOGEE": "204.810",
    "PERIGEE": "182.315",
    "DECAYED": "1"
  },
  {
    "ORDINAL": "1",
    "COMMENT": "GENERATED VIA SPACETRACK.ORG API",
    "ORIGINATOR": "18 SPCS",
    "NORAD_CAT_ID": "689",
    "OBJECT_NAME": "COSMOS 22",
    "OBJECT_TYPE": "PAYLOAD",
    "CLASSIFICATION_TYPE": "U",
    "INTLDES": "63045A",
    "EPOCH": "1963-11-18 18:09:08",
    "EPOCH_MICROSECONDS": "663327",
    "MEAN_MOTION": "15.94992733",
    "ECCENTRICITY": "0.0140332",
    "INCLINATION": "64.9025",
    "RA_OF_ASC_NODE": "240.8336",
    "ARG_OF_PERICENTER": "40.1858",
    "MEAN_ANOMALY": "320.8435",
    "EPHEMERIS_TYPE": "0",
    "ELEMENT_SET_NO": "999",
    "REV_AT_EPOCH": "37",
    "BSTAR": "0",
    "MEAN_MOTION_DOT": "0.00185749",
    "MEAN_MOTION_DDOT": "0",
    "FILE": "33909",
    "TLE_LINE0": "0 COSMOS 22",
    "TLE_LINE1": "1 00689U 63045  A 63322.75635027  .00185749 +00000-0 +00000-0 0  9996",
    "TLE_LINE2": "2 00689 064.9025 240.8336 0140332 040.1858 320.8435 15.94992733000373",
    "OBJECT_ID": "1963-045A",
    "OBJECT_NUMBER": "689",
    "SEMIMAJOR_AXIS": "6666.476",
    "PERIOD": "90.283",
    "APOGEE": "381.893",
    "PERIGEE": "194.789",
    "DECAYED": "1"
  },
  {
    "ORDINAL": "1",
    "COMMENT": "GENERATED VIA SPACETRACK.ORG API",
    "ORIGINATOR": "18 SPCS",
    "NORAD_CAT_ID": "690",
    "OBJECT_NAME": "SL-3 R/B",
    "OBJECT_TYPE": "ROCKET BODY",
    "CLASSIFICATION_TYPE": "U",
    "INTLDES": "63045B",
    "EPOCH": "1963-12-01 02:46:27",
    "EPOCH_MICROSECONDS": "22656",
    "MEAN_MOTION": "16.2909741",
    "ECCENTRICITY": "0.0042978",
    "INCLINATION": "64.8266",
    "RA_OF_ASC_NODE": "195.242",
    "ARG_OF_PERICENTER": "39.9471",
    "MEAN_ANOMALY": "320.3697",
    "EPHEMERIS_TYPE": "0",
    "ELEMENT_SET_NO": "999",
    "REV_AT_EPOCH": "236",
    "BSTAR": "0",
    "MEAN_MOTION_DOT": "0.02142579",
    "MEAN_MOTION_DDOT": "0",
    "FILE": "33909",
    "TLE_LINE0": "0 SL-3 R/B",
    "TLE_LINE1": "1 00690U 63045  B 63335.11559054  .02142579 +00000-0 +00000-0 0  9993",
    "TLE_LINE2": "2 00690 064.8266 195.2420 0042978 039.9471 320.3697 16.29097410002365",
    "OBJECT_ID": "1963-045B",
    "OBJECT_NUMBER": "690",
    "SEMIMAJOR_AXIS": "6573.108",
    "PERIOD": "88.393",
    "APOGEE": "223.223",
    "PERIGEE": "166.723",
    "DECAYED": "1"
  },
  {
    "ORDINAL": "1",
    "COMMENT": "GENERATED VIA SPACETRACK.ORG API",
    "ORIGINATOR": "18 SPCS",
    "NORAD_CAT_ID": "691",
    "OBJECT_NAME": "THOR AGENA D DEB",
    "OBJECT_TYPE": "DEBRIS",
    "CLASSIFICATION_TYPE": "U",
    "INTLDES": "63042C",
    "EPOCH": "1963-11-29 08:37:23",
    "EPOCH_MICROSECONDS": "573567",
    "MEAN_MOTION": "15.93719673",
    "ECCENTRICITY": "0.0029159",
    "INCLINATION": "89.9072",
    "RA_OF_ASC_NODE": "57.4641",
    "ARG_OF_PERICENTER": "223.0815",
    "MEAN_ANOMALY": "136.7034",
    "EPHEMERIS_TYPE": "0",
    "ELEMENT_SET_NO": "999",
    "REV_AT_EPOCH": "479",
    "BSTAR": "0",
    "MEAN_MOTION_DOT": "0.00089454",
    "MEAN_MOTION_DDOT": "0",
    "FILE": "33909",
    "TLE_LINE0": "0 THOR AGENA D DEB",
    "TLE_LINE1": "1 00691U 63042  C 63333.35930062  .00089454 +00000-0 +00000-0 0  9997",
    "TLE_LINE2": "2 00691 089.9072 057.4641 0029159 223.0815 136.7034 15.93719673004792",
    "OBJECT_ID": "1963-042C",
    "OBJECT_NUMBER": "691",
    "SEMIMAJOR_AXIS": "6670.026",
    "PERIOD": "90.355",
    "APOGEE": "311.340",
    "PERIGEE": "272.441",
    "DECAYED": "1"
  },
  {
    "ORDINAL": "1",
    "COMMENT": "GENERATED VIA SPACETRACK.ORG API",
    "ORIGINATOR": "18 SPCS",
    "NORAD_CAT_ID": "692",
    "OBJECT_NAME": "VELA 1",
    "OBJECT_TYPE": "PAYLOAD",
    "CLASSIFICATION_TYPE": "U",
    "INTLDES": "63039C",
    "EPOCH": "2023-02-02 23:45:46",
    "EPOCH_MICROSECONDS": "601280",
    "MEAN_MOTION": "0.22121329",
    "ECCENTRICITY": "0.5731623",
    "INCLINATION": "9.9009",
    "RA_OF_ASC_NODE": "349.4523",
    "ARG_OF_PERICENTER": "248.3973",
    "MEAN_ANOMALY": "359.4357",
    "EPHEMERIS_TYPE": "0",
    "ELEMENT_SET_NO": "999",
    "REV_AT_EPOCH": "1045",
    "BSTAR": "0",
    "MEAN_MOTION_DOT": "-0.00000371",
    "MEAN_MOTION_DDOT": "0",
    "FILE": "3766747",
    "TLE_LINE0": "0 VELA 1",
    "TLE_LINE1": "1 00692U 63039C   23033.99012270 -.00000371  00000-0  00000-0 0  9991",
    "TLE_LINE2": "2 00692   9.9009 349.4523 5731623 248.3973 359.4357  0.22121329 10457",
    "OBJECT_ID": "1963-039C",
    "OBJECT_NUMBER": "692",
    "SEMIMAJOR_AXIS": "115485.564",
    "PERIOD": "6509.555",
    "APOGEE": "175299.400",
    "PERIGEE": "42915.457",
    "DECAYED": "0"
  },
  {
    "ORDINAL": "1",
    "COMMENT": "GENERATED VIA SPACETRACK.ORG API",
    "ORIGINATOR": "18 SPCS",
    "NORAD_CAT_ID": "693",
    "OBJECT_NAME": "EXPLORER 18 (IMP-1)",
    "OBJECT_TYPE": "PAYLOAD",
    "CLASSIFICATION_TYPE": "U",
    "INTLDES": "63046A",
    "EPOCH": "1965-09-08 19:16:24",
    "EPOCH_MICROSECONDS": "134303",
    "MEAN_MOTION": "0.25665457",
    "ECCENTRICITY": "0.89709",
    "INCLINATION": "35.1949",
    "RA_OF_ASC_NODE": "239.2015",
    "ARG_OF_PERICENTER": "162.1051",
    "MEAN_ANOMALY": "295.8661",
    "EPHEMERIS_TYPE": "0",
    "ELEMENT_SET_NO": "999",
    "REV_AT_EPOCH": "175",
    "BSTAR": "0",
    "MEAN_MOTION_DOT": "0",
    "MEAN_MOTION_DDOT": "0",
    "FILE": "33911",
    "TLE_LINE0": "0 EXPLORER 18 (IMP-1)",
    "TLE_LINE1": "1 00693U 63046  A 65251.80305711  .00000000 +00000-0 +00000-0 0  9991",
    "TLE_LINE2": "2 00693 035.1949 239.2015 8970900 162.1051 295.8661 00.25665457001752",
    "OBJECT_ID": "1963-046A",
    "OBJECT_NUMBER": "693",
    "SEMIMAJOR_AXIS": "104593.040",
    "PERIOD": "5610.654",
    "APOGEE": "192044.275",
    "PERIGEE": "4385.535",
    "DECAYED": "1"
  }
]
